COSMOS 2493 (SKRL-756 1)
1 39490U 13078A   26068.88109627  .00005252  00000+0  40276-3 0  9992
2 39490  82.4165 358.3033 0011855 214.7485 145.2966 15.01584319663059
STARLINK-5455           
1 55668U 23021AS  26068.69367912 -.00000603  00000+0 -42751-4 0  9996
2 55668  70.0008 164.5072 0003390 273.9527  86.1245 14.98332438169278
